start=new Date('2021-12-13T00:00:00.000Z').valueOf();
sats=[{"LAUNCH_DATE":"2021-12-02","ECCENTRICITY":"0.00017690","COUNTRY_CODE":"US","PERIAPSIS":"443.916","MEAN_MOTION_DOT":"0.00113455","EPHEMERIS_TYPE":"0","INCLINATION":"53.2170","ARG_OF_PERICENTER":"298.5016","SITE":"AFETR","APOAPSIS":"446.330","REF_FRAME":"TEME","OBJECT_ID":"2021-115D","EPOCH":"2021-12-12T22:00:01.999584","TIME_SYSTEM":"UTC","MEAN_MOTION":"15.40334541","MEAN_ANOMALY":"295.8422","MEAN_ELEMENT_THEORY":"SGP4","BSTAR":"0.00273930000000","RCS_SIZE":"LARGE","DECAY_DATE":null,"PERIOD":"93.486","NORAD_CAT_ID":"49727","CENTER_NAME":"EARTH","REV_AT_EPOCH":"199","RA_OF_ASC_NODE":"270.2548","FILE":"3238376","TLE_LINE1":"1 49727U 21115D   21346.91668981  .00113455  00000-0  27393-2 0  9998","ELEMENT_SET_NO":"999","SEMIMAJOR_AXIS":"6823.258","GP_ID":"191588837","CLASSIFICATION_TYPE":"U","TLE_LINE2":"2 49727  53.2170 270.2548 0001769 298.5016 295.8422 15.40334541  1992","OBJECT_NAME":"STARLINK-3242","MEAN_MOTION_DDOT":"0.0000000000000","OBJECT_TYPE":"PAYLOAD"},{"MEAN_MOTION":"15.40471650","MEAN_ANOMALY":"301.6698","PERIOD":"93.478","DECAY_DATE":null,"RCS_SIZE":"LARGE","MEAN_ELEMENT_THEORY":"SGP4","BSTAR":"-0.00071002000000","CENTER_NAME":"EARTH","NORAD_CAT_ID":"49728","REV_AT_EPOCH":"199","FILE":"3238376","RA_OF_ASC_NODE":"270.2583","GP_ID":"191589021","TLE_LINE1":"1 49728U 21115E   21346.91668981 -.00029503  00000-0 -71002-3 0  9998","ELEMENT_SET_NO":"999","SEMIMAJOR_AXIS":"6822.853","CLASSIFICATION_TYPE":"U","TLE_LINE2":"2 49728  53.2156 270.2583 0002694 291.6107 301.6698 15.40471650  1993","MEAN_MOTION_DDOT":"0.0000000000000","OBJECT_NAME":"STARLINK-3240","OBJECT_TYPE":"PAYLOAD","LAUNCH_DATE":"2021-12-02","ECCENTRICITY":"0.00026940","COUNTRY_CODE":"US","MEAN_MOTION_DOT":"-0.00029503","PERIAPSIS":"442.880","INCLINATION":"53.2156","EPHEMERIS_TYPE":"0","SITE":"AFETR","ARG_OF_PERICENTER":"291.6107","APOAPSIS":"446.556","OBJECT_ID":"2021-115E","REF_FRAME":"TEME","EPOCH":"2021-12-12T22:00:01.999584","TIME_SYSTEM":"UTC"},{"OBJECT_NAME":"STARLINK-3251","MEAN_MOTION_DDOT":"0.0000000000000","OBJECT_TYPE":"PAYLOAD","TLE_LINE1":"1 49729U 21115F   21346.91668981  .00122640  00000-0  29576-2 0  9991","ELEMENT_SET_NO":"999","SEMIMAJOR_AXIS":"6823.285","GP_ID":"191588100","TLE_LINE2":"2 49729  53.2170 270.2590 0001821 303.5033 288.7492 15.40325349  1990","CLASSIFICATION_TYPE":"U","REV_AT_EPOCH":"199","RA_OF_ASC_NODE":"270.2590","FILE":"3238376","BSTAR":"0.00295760000000","MEAN_ELEMENT_THEORY":"SGP4","DECAY_DATE":null,"RCS_SIZE":"LARGE","PERIOD":"93.487","NORAD_CAT_ID":"49729","CENTER_NAME":"EARTH","MEAN_ANOMALY":"288.7492","MEAN_MOTION":"15.40325349","EPOCH":"2021-12-12T22:00:01.999584","TIME_SYSTEM":"UTC","APOAPSIS":"446.393","REF_FRAME":"TEME","OBJECT_ID":"2021-115F","EPHEMERIS_TYPE":"0","INCLINATION":"53.2170","ARG_OF_PERICENTER":"303.5033","SITE":"AFETR","PERIAPSIS":"443.908","MEAN_MOTION_DOT":"0.00122640","COUNTRY_CODE":"US","ECCENTRICITY":"0.00018210","LAUNCH_DATE":"2021-12-02"},{"OBJECT_TYPE":"PAYLOAD","MEAN_MOTION_DDOT":"0.0000000000000","OBJECT_NAME":"STARLINK-3249","CLASSIFICATION_TYPE":"U","TLE_LINE2":"2 49730  53.2156 270.2645 0002945 291.1079 299.0084 15.40483540  1997","GP_ID":"191588284","ELEMENT_SET_NO":"999","TLE_LINE1":"1 49730U 21115G   21346.91668981 -.00036749  00000-0 -88730-3 0  9997","SEMIMAJOR_AXIS":"6822.818","CENTER_NAME":"EARTH","NORAD_CAT_ID":"49730","PERIOD":"93.477","DECAY_DATE":null,"RCS_SIZE":"LARGE","BSTAR":"-0.00088730000000","MEAN_ELEMENT_THEORY":"SGP4","FILE":"3238376","RA_OF_ASC_NODE":"270.2645","REV_AT_EPOCH":"199","MEAN_MOTION":"15.40483540","MEAN_ANOMALY":"299.0084","OBJECT_ID":"2021-115G","REF_FRAME":"TEME","APOAPSIS":"446.693","TIME_SYSTEM":"UTC","EPOCH":"2021-12-12T22:00:01.999584","SITE":"AFETR","ARG_OF_PERICENTER":"291.1079","INCLINATION":"53.2156","EPHEMERIS_TYPE":"0","COUNTRY_CODE":"US","MEAN_MOTION_DOT":"-0.00036749","PERIAPSIS":"442.674","LAUNCH_DATE":"2021-12-02","ECCENTRICITY":"0.00029450"},{"MEAN_MOTION":"15.40460328","MEAN_ANOMALY":"292.5539","DECAY_DATE":null,"RCS_SIZE":"LARGE","PERIOD":"93.479","MEAN_ELEMENT_THEORY":"SGP4","BSTAR":"0.00000541380000","CENTER_NAME":"EARTH","NORAD_CAT_ID":"49731","REV_AT_EPOCH":"199","FILE":"3238376","RA_OF_ASC_NODE":"270.2612","GP_ID":"191589200","SEMIMAJOR_AXIS":"6822.887","TLE_LINE1":"1 49731U 21115H   21346.91668981 -.00000181  00000-0  54138-5 0  9995","ELEMENT_SET_NO":"999","CLASSIFICATION_TYPE":"U","TLE_LINE2":"2 49731  53.2175 270.2612 0002482 298.5249 292.5539 15.40460328  1991","MEAN_MOTION_DDOT":"0.0000000000000","OBJECT_NAME":"STARLINK-3228","OBJECT_TYPE":"PAYLOAD","LAUNCH_DATE":"2021-12-02","ECCENTRICITY":"0.00024820","COUNTRY_CODE":"US","MEAN_MOTION_DOT":"-0.00000181","PERIAPSIS":"443.058","INCLINATION":"53.2175","EPHEMERIS_TYPE":"0","ARG_OF_PERICENTER":"298.5249","SITE":"AFETR","APOAPSIS":"446.445","OBJECT_ID":"2021-115H","REF_FRAME":"TEME","EPOCH":"2021-12-12T22:00:01.999584","TIME_SYSTEM":"UTC"},{"TIME_SYSTEM":"UTC","EPOCH":"2021-12-12T22:00:01.999584","OBJECT_ID":"2021-115J","REF_FRAME":"TEME","APOAPSIS":"447.563","ARG_OF_PERICENTER":"289.7925","SITE":"AFETR","INCLINATION":"53.2158","EPHEMERIS_TYPE":"0","MEAN_MOTION_DOT":"-0.00000104","PERIAPSIS":"441.920","COUNTRY_CODE":"US","ECCENTRICITY":"0.00041350","LAUNCH_DATE":"2021-12-02","OBJECT_TYPE":"PAYLOAD","MEAN_MOTION_DDOT":"0.0000000000000","OBJECT_NAME":"STARLINK-3246","TLE_LINE2":"2 49732  53.2158 270.2694 0004135 289.7925 297.1805 15.40463730  1990","CLASSIFICATION_TYPE":"U","GP_ID":"191589384","TLE_LINE1":"1 49732U 21115J   21346.91668981 -.00000104  00000-0  73293-5 0  9994","ELEMENT_SET_NO":"999","SEMIMAJOR_AXIS":"6822.877","FILE":"3238376","RA_OF_ASC_NODE":"270.2694","REV_AT_EPOCH":"199","CENTER_NAME":"EARTH","NORAD_CAT_ID":"49732","DECAY_DATE":null,"PERIOD":"93.478","RCS_SIZE":"LARGE","BSTAR":"0.00000732930000","MEAN_ELEMENT_THEORY":"SGP4","MEAN_ANOMALY":"297.1805","MEAN_MOTION":"15.40463730"},{"CLASSIFICATION_TYPE":"U","TLE_LINE2":"2 49733  53.2169 270.2651 0003197 292.1520 296.9131 15.40372824  1994","GP_ID":"191588476","TLE_LINE1":"1 49733U 21115K   21346.91668981  .00070635  00000-0  17164-2 0  9992","ELEMENT_SET_NO":"999","SEMIMAJOR_AXIS":"6823.145","OBJECT_TYPE":"PAYLOAD","OBJECT_NAME":"STARLINK-3252","MEAN_MOTION_DDOT":"0.0000000000000","MEAN_ANOMALY":"296.9131","MEAN_MOTION":"15.40372824","FILE":"3238376","RA_OF_ASC_NODE":"270.2651","REV_AT_EPOCH":"199","CENTER_NAME":"EARTH","NORAD_CAT_ID":"49733","RCS_SIZE":"LARGE","DECAY_DATE":null,"PERIOD":"93.484","BSTAR":"0.00171640000000","MEAN_ELEMENT_THEORY":"SGP4","SITE":"AFETR","ARG_OF_PERICENTER":"292.1520","INCLINATION":"53.2169","EPHEMERIS_TYPE":"0","TIME_SYSTEM":"UTC","EPOCH":"2021-12-12T22:00:01.999584","OBJECT_ID":"2021-115K","REF_FRAME":"TEME","APOAPSIS":"447.191","ECCENTRICITY":"0.00031970","LAUNCH_DATE":"2021-12-02","MEAN_MOTION_DOT":"0.00070635","PERIAPSIS":"442.829","COUNTRY_CODE":"US"},{"COUNTRY_CODE":"US","PERIAPSIS":"443.732","MEAN_MOTION_DOT":"-0.00051699","LAUNCH_DATE":"2021-12-02","ECCENTRICITY":"0.00013720","APOAPSIS":"445.604","REF_FRAME":"TEME","OBJECT_ID":"2021-115L","EPOCH":"2021-12-12T22:00:01.999584","TIME_SYSTEM":"UTC","EPHEMERIS_TYPE":"0","INCLINATION":"53.2153","SITE":"AFETR","ARG_OF_PERICENTER":"68.2263","MEAN_ELEMENT_THEORY":"SGP4","BSTAR":"-0.00125470000000","DECAY_DATE":null,"RCS_SIZE":"LARGE","PERIOD":"93.477","NORAD_CAT_ID":"49734","CENTER_NAME":"EARTH","REV_AT_EPOCH":"199","RA_OF_ASC_NODE":"270.2728","FILE":"3238376","MEAN_MOTION":"15.40488794","MEAN_ANOMALY":"157.6599","OBJECT_NAME":"STARLINK-3238","MEAN_MOTION_DDOT":"0.0000000000000","OBJECT_TYPE":"PAYLOAD","TLE_LINE1":"1 49734U 21115L   21346.91668981 -.00051699  00000-0 -12547-2 0  9994","SEMIMAJOR_AXIS":"6822.803","ELEMENT_SET_NO":"999","GP_ID":"191588660","TLE_LINE2":"2 49734  53.2153 270.2728 0001372  68.2263 157.6599 15.40488794  1997","CLASSIFICATION_TYPE":"U"},{"RA_OF_ASC_NODE":"270.2689","FILE":"3238376","REV_AT_EPOCH":"199","NORAD_CAT_ID":"49735","CENTER_NAME":"EARTH","BSTAR":"-0.00012433000000","MEAN_ELEMENT_THEORY":"SGP4","DECAY_DATE":null,"PERIOD":"93.478","RCS_SIZE":"LARGE","MEAN_ANOMALY":"294.3357","MEAN_MOTION":"15.40470556","OBJECT_TYPE":"PAYLOAD","OBJECT_NAME":"STARLINK-3113","MEAN_MOTION_DDOT":"0.0000000000000","CLASSIFICATION_TYPE":"U","TLE_LINE2":"2 49735  53.2159 270.2689 0003143 293.6293 294.3357 15.40470556  1993","SEMIMAJOR_AXIS":"6822.857","TLE_LINE1":"1 49735U 21115M   21346.91668981 -.00005516  00000-0 -12433-3 0  9997","ELEMENT_SET_NO":"999","GP_ID":"191588838","PERIAPSIS":"442.577","MEAN_MOTION_DOT":"-0.00005516","COUNTRY_CODE":"US","ECCENTRICITY":"0.00031430","LAUNCH_DATE":"2021-12-02","TIME_SYSTEM":"UTC","EPOCH":"2021-12-12T22:00:01.999584","REF_FRAME":"TEME","OBJECT_ID":"2021-115M","APOAPSIS":"446.866","ARG_OF_PERICENTER":"293.6293","SITE":"AFETR","EPHEMERIS_TYPE":"0","INCLINATION":"53.2159"},{"COUNTRY_CODE":"US","MEAN_MOTION_DOT":"-0.00029015","PERIAPSIS":"443.725","LAUNCH_DATE":"2021-12-02","ECCENTRICITY":"0.00014540","APOAPSIS":"445.709","OBJECT_ID":"2021-115N","REF_FRAME":"TEME","EPOCH":"2021-12-12T22:00:01.999584","TIME_SYSTEM":"UTC","INCLINATION":"53.2154","EPHEMERIS_TYPE":"0","ARG_OF_PERICENTER":"59.2901","SITE":"AFETR","DECAY_DATE":null,"PERIOD":"93.478","RCS_SIZE":"MEDIUM","MEAN_ELEMENT_THEORY":"SGP4","BSTAR":"-0.00069816000000","CENTER_NAME":"EARTH","NORAD_CAT_ID":"49736","REV_AT_EPOCH":"199","FILE":"3238376","RA_OF_ASC_NODE":"270.2790","MEAN_MOTION":"15.40472223","MEAN_ANOMALY":"163.4527","OBJECT_NAME":"STARLINK-3148","MEAN_MOTION_DDOT":"0.0000000000000","OBJECT_TYPE":"PAYLOAD","GP_ID":"191589022","SEMIMAJOR_AXIS":"6822.852","TLE_LINE1":"1 49736U 21115N   21346.91668981 -.00029015  00000-0 -69816-3 0  9995","ELEMENT_SET_NO":"999","TLE_LINE2":"2 49736  53.2154 270.2790 0001454  59.2901 163.4527 15.40472223  1995","CLASSIFICATION_TYPE":"U"}];
